LEMUR-2-ANDIS           
1 42838U 17042P   26068.55941107  .00023598  00000+0  79875-3 0  9998
2 42838  97.3659 249.7950 0009101   4.3248 355.8070 15.30557934473198
STARLINK-34118          
1 63900U 25095L   26067.36970235  .00029288  00000+0  10712-2 0  9996
2 63900  43.0010 183.8764 0001297 293.2376  66.8339 15.27531579 47580
